{"type": "FeatureCollection", "features": [ {"type": "Feature", "properties": {"norad_id": 61183, "name": "GSAT0226 (GALILEO 31)", "group": "galileo", "lat": -12.766911159552516, "lon": -142.76950791394913, "alt_km": 23225.74203126834, "timestamp": "2025-12-18T23:35:49.323166+00:00", "meta": {"OBJECT_NAME": "GSAT0226 (GALILEO 31)", "OBJECT_ID": "2024-167B", "EPOCH": "2025-12-18T14:21:31.891392", "MEAN_MOTION": 1.70473759, "ECCENTRICITY": 0.00010399, "INCLINATION": 55.2376, "RA_OF_ASC_NODE": 226.2756, "ARG_OF_PERICENTER": 106.8456, "MEAN_ANOMALY": 1.4308, "EPHEMERIS_TYPE": 0, "CLASSIFICATION_TYPE": "U", "NORAD_CAT_ID": 61183, "ELEMENT_SET_NO": 999, "REV_AT_EPOCH": 777, "BSTAR": 0, "MEAN_MOTION_DOT": 6.4e-07, "MEAN_MOTION_DDOT": 0}, "tle": {"line1": "1 61183U 24167B   25352.59828578  .00000064  00000+0  00000+0 0  9996", "line2": "2 61183  55.2376 226.2756 0001039 106.8456   1.4308  1.70473759  7772"}}, "geometry": {"type": "Point", "coordinates": [-142.76950791394913, -12.766911159552516]}}, {"type": "Feature", "properties": {"norad_id": 67160, "name": "GALILEO A", "group": "galileo", "lat": 15.343637042501964, "lon": -84.17993525114703, "alt_km": 22937.173657073807, "timestamp": "2025-12-18T23:35:49.323178+00:00", "meta": {"OBJECT_NAME": "GALILEO A", "OBJECT_ID": "2025-302A", "EPOCH": "2025-12-18T03:30:19.807776", "MEAN_MOTION": 1.72901431, "ECCENTRICITY": 0.00080329, "INCLINATION": 54.2385, "RA_OF_ASC_NODE": 107.247, "ARG_OF_PERICENTER": 237.4965, "MEAN_ANOMALY": 122.3848, "EPHEMERIS_TYPE": 0, "CLASSIFICATION_TYPE": "U", "NORAD_CAT_ID": 67160, "ELEMENT_SET_NO": 999, "REV_AT_EPOCH": 2, "BSTAR": 0, "MEAN_MOTION_DOT": -7e-08, "MEAN_MOTION_DDOT": 0}, "tle": {"line1": "1 67160U 25302A   25352.14606259 -.00000007  00000+0  00000+0 0  9998", "line2": "2 67160  54.2385 107.2470 0008032 237.4965 122.3848  1.72901431    27"}}, "geometry": {"type": "Point", "coordinates": [-84.17993525114703, 15.343637042501964]}}, {"type": "Feature", "properties": {"norad_id": 67161, "name": "GALILEO B", "group": "galileo", "lat": 15.000641217420092, "lon": -83.93744027759719, "alt_km": 22935.149987336103, "timestamp": "2025-12-18T23:35:49.323190+00:00", "meta": {"OBJECT_NAME": "GALILEO B", "OBJECT_ID": "2025-302B", "EPOCH": "2025-12-18T03:29:55.932000", "MEAN_MOTION": 1.72967481, "ECCENTRICITY": 0.0004929, "INCLINATION": 54.2283, "RA_OF_ASC_NODE": 107.2235, "ARG_OF_PERICENTER": 250.9394, "MEAN_ANOMALY": 108.9662, "EPHEMERIS_TYPE": 0, "CLASSIFICATION_TYPE": "U", "NORAD_CAT_ID": 67161, "ELEMENT_SET_NO": 999, "REV_AT_EPOCH": 3, "BSTAR": 0, "MEAN_MOTION_DOT": -7e-08, "MEAN_MOTION_DDOT": 0}, "tle": {"line1": "1 67161U 25302B   25352.14578625 -.00000007  00000+0  00000+0 0  9994", "line2": "2 67161  54.2283 107.2235 0004929 250.9394 108.9662  1.72967481    33"}}, "geometry": {"type": "Point", "coordinates": [-83.93744027759719, 15.000641217420092]}}]}